BEIJING 1               
1 28890U 05043A   22214.48284612  .00000027  00000+0  14822-4 0  9994
2 28890  98.1245 336.0540 0015782  34.6960 325.5267 14.61473003893863
HJ-1A                   
1 33320U 08041A   22214.46087506  .00000182  00000+0  31984-4 0  9990
2 33320  97.6749 245.3565 0022600  82.7146 277.6639 14.77881916749184
HJ-1B                   
1 33321U 08041B   22214.41003251  .00000444  00000+0  68010-4 0  9992
2 33321  97.6918 248.9657 0035788 100.2574 260.2679 14.77805044749175
YAOGAN 4                
1 33446U 08061A   22214.43263592  .00000204  00000+0  35666-4 0  9995
2 33446  97.8179 153.1665 0015961 350.7957   9.2959 14.77421830736386
DEIMOS-1                
1 35681U 09041A   22214.41396241  .00000129  00000+0  27890-4 0  9999
2 35681  97.7101  63.1214 0002922  82.2559 277.8980 14.72082561698531
UK-DMC 2                
1 35683U 09041C   22214.52753912  .00000201  00000+0  39721-4 0  9992
2 35683  97.7003  25.1154 0001796  92.1373 268.0042 14.71452883698287
RISAT 1                 
1 38248U 12017A   22214.45781458  .00001436  00000+0  86944-4 0  9997
2 38248  97.5524 225.3278 0005702  98.6079 261.5797 15.12199243565797
DMC3-FM1                
1 40715U 15032A   22214.37420075  .00000160  00000+0  26593-4 0  9992
2 40715  97.8418 100.2798 0006458  22.7621 337.3860 14.82157866380094
DMC3-FM2                
1 40716U 15032B   22214.39694420  .00000174  00000+0  28430-4 0  9999
2 40716  97.8459 100.9679 0008475  22.5169 337.6403 14.82150049380105
DMC3-FM3                
1 40717U 15032C   22214.41917942  .00000171  00000+0  28005-4 0  9995
2 40717  97.8495 101.9196 0010378  18.9510 341.2080 14.82178057380106
